[{"OBJECT_NAME":"TOMORROW-R2","OBJECT_ID":"2023-084AG","EPOCH":"2026-03-09T21:19:23.098656","MEAN_MOTION":15.71879583,"ECCENTRICITY":0.00051142,"INCLINATION":97.5895,"RA_OF_ASC_NODE":222.1734,"ARG_OF_PERICENTER":248.1295,"MEAN_ANOMALY":111.9424,"EPHEMERIS_TYPE":0,"CLASSIFICATION_TYPE":"U","NORAD_CAT_ID":56962,"ELEMENT_SET_NO":999,"REV_AT_EPOCH":15332,"BSTAR":0.00081619373,"MEAN_MOTION_DOT":0.00107013,"MEAN_MOTION_DDOT":0},{"OBJECT_NAME":"STARLINK-11435 [DTC]","OBJECT_ID":"2025-024N","EPOCH":"2026-03-09T07:34:29.328672","MEAN_MOTION":15.70971153,"ECCENTRICITY":0.00012524,"INCLINATION":42.9992,"RA_OF_ASC_NODE":184.0769,"ARG_OF_PERICENTER":227.3644,"MEAN_ANOMALY":132.7118,"EPHEMERIS_TYPE":0,"CLASSIFICATION_TYPE":"U","NORAD_CAT_ID":62891,"ELEMENT_SET_NO":999,"REV_AT_EPOCH":6340,"BSTAR":0.0016946232,"MEAN_MOTION_DOT":0.00224193,"MEAN_MOTION_DDOT":0}]
