TOMORROW-R2             
1 56962U 23084AG  26068.88846178  .00107013  00000+0  81619-3 0  9996
2 56962  97.5895 222.1734 0005114 248.1295 111.9424 15.71879583153326
STARLINK-11435 [DTC]    
1 62891U 25024N   26068.31561723  .00224193  00000+0  16946-2 0  9997
2 62891  42.9992 184.0769 0001252 227.3644 132.7118 15.70971153 63401
